OBJECT_NAME,OBJECT_ID,EPOCH,MEAN_MOTION,ECCENTRICITY,INCLINATION,RA_OF_ASC_NODE,ARG_OF_PERICENTER,MEAN_ANOMALY,EPHEMERIS_TYPE,CLASSIFICATION_TYPE,NORAD_CAT_ID,ELEMENT_SET_NO,REV_AT_EPOCH,BSTAR,MEAN_MOTION_DOT,MEAN_MOTION_DDOT
GLOBALSTAR M069,2007-020C,2026-06-20T10:45:22.311360,12.23471356,.000227,52.0019,242.8973,155.1030,218.5220,0,U,31573,999,87920,.22493E-4,-.9E-6,0
GLOBALSTAR M072,2007-020D,2026-06-20T06:18:09.022752,11.91658300,.0001444,51.9932,92.0574,340.1824,183.7882,0,U,31574,999,87534,-.18974E-3,-.98E-6,0
GLOBALSTAR M066,2007-048C,2026-06-19T20:12:39.926592,12.30387322,.00055365,51.9606,50.2909,49.6386,29.5568,0,U,32265,999,86055,-.41006383E-3,-.143E-5,0
GLOBALSTAR M079,2010-054A,2026-06-19T23:46:59.955744,12.62266104,.0000779,52.0037,100.1341,30.9958,48.7777,0,U,37188,999,72290,.71095778E-4,-.91E-6,0
GLOBALSTAR M074,2010-054B,2026-06-20T04:34:20.516736,12.62268375,.00006164,52.0014,98.7910,56.2996,90.9323,0,U,37189,999,72353,.59540285E-4,-.93E-6,0
GLOBALSTAR M076,2010-054C,2026-06-20T05:15:40.435200,12.62261874,.00008069,52.0024,98.9070,49.2410,108.4862,0,U,37190,999,72325,.79453213E-4,-.9E-6,0
GLOBALSTAR M077,2010-054D,2026-06-20T09:35:10.974048,11.67547823,.000268,51.9916,171.1423,178.3140,342.6358,0,U,37191,999,72151,-.90016E-4,-.83E-6,0
GLOBALSTAR M075,2010-054E,2026-06-20T07:24:05.166432,12.62267321,.0000242,51.9926,140.6885,24.6357,118.4869,0,U,37192,999,72233,-.13934E-4,-.106E-5,0
GLOBALSTAR M073,2010-054F,2026-06-20T09:27:39.736224,12.62266576,.000096,52.0075,54.5304,55.0478,116.6998,0,U,37193,999,72433,.79664E-4,-.89E-6,0
GLOBALSTAR M083,2011-033A,2026-06-20T05:58:17.297184,12.62263282,.0000954,51.9874,3.1972,71.2932,100.8602,0,U,37739,999,69333,.92563E-4,-.87E-6,0
GLOBALSTAR M088,2011-033B,2026-06-20T06:29:03.322176,12.62268842,.0000642,52.0214,269.5692,132.0435,255.6304,0,U,37740,999,68888,.10469E-3,-.85E-6,0
GLOBALSTAR M091,2011-033C,2026-06-20T10:31:04.169280,12.62264034,.0000227,51.9985,232.0186,161.7451,210.9529,0,U,37741,999,68969,.13185E-4,-.101E-5,0
GLOBALSTAR M085,2011-033D,2026-06-20T10:57:52.436160,12.62264122,.0000182,52.0094,183.2553,323.4901,193.9145,0,U,37742,999,69020,-.57461E-4,-.114E-5,0
GLOBALSTAR M081,2011-033E,2026-06-20T11:36:18.720000,12.62265163,.0000118,51.9927,185.6070,57.0362,101.3885,0,U,37743,999,69035,.11595E-4,-.102E-5,0
GLOBALSTAR M089,2011-033F,2026-06-20T08:44:07.285344,12.62267262,.000039,51.9908,140.1280,80.3913,75.2933,0,U,37744,999,69118,.34532E-4,-.98E-6,0
GLOBALSTAR M084,2011-080A,2026-06-19T23:33:55.804896,12.62267589,.00011015,52.0027,8.7741,90.0231,68.5285,0,U,38040,999,66911,.33465316E-4,-.98E-6,0
GLOBALSTAR M080,2011-080B,2026-06-20T00:48:56.249568,12.62269508,.00004045,52.0078,10.3347,72.1904,93.2346,0,U,38041,999,66924,.74923636E-4,-.9E-6,0
GLOBALSTAR M082,2011-080C,2026-06-20T05:00:46.474272,12.62263688,.00005124,52.0100,325.3040,101.3544,69.1461,0,U,38042,999,66997,.72166635E-4,-.91E-6,0
GLOBALSTAR M092,2011-080D,2026-06-20T04:24:02.723040,12.62267042,.00007516,52.0094,55.7781,67.9038,105.6882,0,U,38043,999,66842,.70589803E-4,-.91E-6,0
GLOBALSTAR M090,2011-080E,2026-06-20T10:37:47.345376,12.62269039,.0000773,52.0138,318.5478,96.2433,297.3561,0,U,38044,999,67012,.30403E-4,-.98E-6,0
GLOBALSTAR M086,2011-080F,2026-06-20T09:11:22.776000,12.62286851,.0001694,51.9915,318.6555,72.9825,309.0109,0,U,38045,999,67006,.12517E-3,-.81E-6,0
GLOBALSTAR M097,2013-005A,2026-06-20T07:55:37.454304,12.62247330,.0000225,52.0035,233.7699,126.8592,233.2295,0,U,39072,999,61730,.1857E-4,-.1E-5,0
GLOBALSTAR M093,2013-005B,2026-06-20T11:05:02.323680,12.62266004,.0000174,52.0088,226.7165,75.0224,285.0662,0,U,39073,999,61727,-.45766E-5,-.105E-5,0
GLOBALSTAR M094,2013-005C,2026-06-20T07:16:49.558368,12.62268528,.0000491,51.9933,141.3104,11.3089,348.7789,0,U,39074,999,61886,-.28829E-4,-.109E-5,0
GLOBALSTAR M096,2013-005D,2026-06-20T07:36:14.803200,12.62265673,.0000103,52.0043,190.0746,333.6105,26.4756,0,U,39075,999,61778,-.51054E-4,-.113E-5,0
GLOBALSTAR M078,2013-005E,2026-06-20T10:45:28.020672,12.62257853,.0000501,51.9879,273.6798,242.1310,117.9506,0,U,39076,999,61642,-.62448E-4,-.115E-5,0
GLOBALSTAR M095,2013-005F,2026-06-20T05:41:53.552832,12.62263517,.0000171,52.0088,271.9306,132.1793,227.9088,0,U,39077,999,61625,.10425E-3,-.85E-6,0
GLOBALSTAR M087,2022-064A,2026-06-20T09:48:59.169024,12.62269144,.000081,52.0009,52.6440,45.1973,314.8959,0,U,52888,999,19154,.57296E-4,-.94E-6,0
