[
  {
    "name": "GLOBALSTAR M069",
    "line1": "1 31573U 07020C   26171.44817490 -.00000090  00000+0  22493-4 0  9995",
    "line2": "2 31573  52.0019 242.8973 0002270 155.1030 218.5220 12.23471356879209"
  },
  {
    "name": "GLOBALSTAR M072",
    "line1": "1 31574U 07020D   26171.26260443 -.00000098  00000+0 -18974-3 0  9993",
    "line2": "2 31574  51.9932  92.0574 0001444 340.1824 183.7882 11.91658300875341"
  },
  {
    "name": "GLOBALSTAR M066",
    "line1": "1 32265U 07048C   26170.84212878 -.00000143  00000+0 -41006-3 0  9996",
    "line2": "2 32265  51.9606  50.2909 0005536  49.6386  29.5568 12.30387322860557"
  },
  {
    "name": "GLOBALSTAR M079",
    "line1": "1 37188U 10054A   26170.99097171 -.00000091  00000+0  71096-4 0  9993",
    "line2": "2 37188  52.0037 100.1341 0000779  30.9958  48.7777 12.62266104722903"
  },
  {
    "name": "GLOBALSTAR M074",
    "line1": "1 37189U 10054B   26171.19051524 -.00000093  00000+0  59540-4 0  9991",
    "line2": "2 37189  52.0014  98.7910 0000616  56.2996  90.9323 12.62268375723534"
  },
  {
    "name": "GLOBALSTAR M076",
    "line1": "1 37190U 10054C   26171.21921800 -.00000090  00000+0  79453-4 0  9991",
    "line2": "2 37190  52.0024  98.9070 0000806  49.2410 108.4862 12.62261874723259"
  },
  {
    "name": "GLOBALSTAR M077",
    "line1": "1 37191U 10054D   26171.39943257 -.00000083  00000+0 -90016-4 0  9992",
    "line2": "2 37191  51.9916 171.1423 0002680 178.3140 342.6358 11.67547823721514"
  },
  {
    "name": "GLOBALSTAR M075",
    "line1": "1 37192U 10054E   26171.30839313 -.00000106  00000+0 -13934-4 0  9991",
    "line2": "2 37192  51.9926 140.6885 0000242  24.6357 118.4869 12.62267321722339"
  },
  {
    "name": "GLOBALSTAR M073",
    "line1": "1 37193U 10054F   26171.39420991 -.00000089  00000+0  79664-4 0  9990",
    "line2": "2 37193  52.0075  54.5304 0000960  55.0478 116.6998 12.62266576724331"
  },
  {
    "name": "GLOBALSTAR M083",
    "line1": "1 37739U 11033A   26171.24881131 -.00000087  00000+0  92563-4 0  9996",
    "line2": "2 37739  51.9874   3.1972 0000954  71.2932 100.8602 12.62263282693334"
  },
  {
    "name": "GLOBALSTAR M088",
    "line1": "1 37740U 11033B   26171.27017734 -.00000085  00000+0  10469-3 0  9993",
    "line2": "2 37740  52.0214 269.5692 0000642 132.0435 255.6304 12.62268842688880"
  },
  {
    "name": "GLOBALSTAR M091",
    "line1": "1 37741U 11033C   26171.43824270 -.00000101  00000+0  13185-4 0  9991",
    "line2": "2 37741  51.9985 232.0186 0000227 161.7451 210.9529 12.62264034689695"
  },
  {
    "name": "GLOBALSTAR M085",
    "line1": "1 37742U 11033D   26171.45685690 -.00000114  00000+0 -57461-4 0  9995",
    "line2": "2 37742  52.0094 183.2553 0000182 323.4901 193.9145 12.62264122690202"
  },
  {
    "name": "GLOBALSTAR M081",
    "line1": "1 37743U 11033E   26171.48355000 -.00000102  00000+0  11595-4 0  9992",
    "line2": "2 37743  51.9927 185.6070 0000118  57.0362 101.3885 12.62265163690352"
  },
  {
    "name": "GLOBALSTAR M089",
    "line1": "1 37744U 11033F   26171.36397321 -.00000098  00000+0  34532-4 0  9992",
    "line2": "2 37744  51.9908 140.1280 0000390  80.3913  75.2933 12.62267262691181"
  },
  {
    "name": "GLOBALSTAR M084",
    "line1": "1 38040U 11080A   26170.98189589 -.00000098  00000+0  33465-4 0  9990",
    "line2": "2 38040  52.0027   8.7741 0001101  90.0231  68.5285 12.62267589669113"
  },
  {
    "name": "GLOBALSTAR M080",
    "line1": "1 38041U 11080B   26171.03398437 -.00000090  00000+0  74924-4 0  9999",
    "line2": "2 38041  52.0078  10.3347 0000404  72.1904  93.2346 12.62269508669244"
  },
  {
    "name": "GLOBALSTAR M082",
    "line1": "1 38042U 11080C   26171.20887123 -.00000091  00000+0  72167-4 0  9992",
    "line2": "2 38042  52.0100 325.3040 0000512 101.3544  69.1461 12.62263688669978"
  },
  {
    "name": "GLOBALSTAR M092",
    "line1": "1 38043U 11080D   26171.18336485 -.00000091  00000+0  70590-4 0  9998",
    "line2": "2 38043  52.0094  55.7781 0000751  67.9038 105.6882 12.62267042668427"
  },
  {
    "name": "GLOBALSTAR M090",
    "line1": "1 38044U 11080E   26171.44290909 -.00000098  00000+0  30403-4 0  9994",
    "line2": "2 38044  52.0138 318.5478 0000773  96.2433 297.3561 12.62269039670129"
  },
  {
    "name": "GLOBALSTAR M086",
    "line1": "1 38045U 11080F   26171.38290250 -.00000081  00000+0  12517-3 0  9994",
    "line2": "2 38045  51.9915 318.6555 0001694  72.9825 309.0109 12.62286851670060"
  },
  {
    "name": "GLOBALSTAR M097",
    "line1": "1 39072U 13005A   26171.33029461 -.00000100  00000+0  18570-4 0  9991",
    "line2": "2 39072  52.0035 233.7699 0000225 126.8592 233.2295 12.62247330617302"
  },
  {
    "name": "GLOBALSTAR M093",
    "line1": "1 39073U 13005B   26171.46183245 -.00000105  00000+0 -45766-5 0  9991",
    "line2": "2 39073  52.0088 226.7165 0000174  75.0224 285.0662 12.62266004617279"
  },
  {
    "name": "GLOBALSTAR M094",
    "line1": "1 39074U 13005C   26171.30335137 -.00000109  00000+0 -28829-4 0  9998",
    "line2": "2 39074  51.9933 141.3104 0000491  11.3089 348.7789 12.62268528618862"
  },
  {
    "name": "GLOBALSTAR M096",
    "line1": "1 39075U 13005D   26171.31683800 -.00000113  00000+0 -51054-4 0  9994",
    "line2": "2 39075  52.0043 190.0746 0000103 333.6105  26.4756 12.62265673617781"
  },
  {
    "name": "GLOBALSTAR M078",
    "line1": "1 39076U 13005E   26171.44824098 -.00000115  00000+0 -62448-4 0  9996",
    "line2": "2 39076  51.9879 273.6798 0000501 242.1310 117.9506 12.62257853616426"
  },
  {
    "name": "GLOBALSTAR M095",
    "line1": "1 39077U 13005F   26171.23742538 -.00000085  00000+0  10425-3 0  9994",
    "line2": "2 39077  52.0088 271.9306 0000171 132.1793 227.9088 12.62263517616255"
  },
  {
    "name": "GLOBALSTAR M087",
    "line1": "1 52888U 22064A   26171.40901816 -.00000094  00000+0  57296-4 0  9997",
    "line2": "2 52888  52.0009  52.6440 0000810  45.1973 314.8959 12.62269144191544"
  }
]